{
  "type": "FeatureCollection",
  "features": [
    {
      "type": "Feature",
      "properties": {
        "norad_id": 38474,
        "name": "IRIDIUM 33 DEB",
        "group": "iridium-33-debris",
        "lat": -60.9855694058118,
        "lon": -158.92797604087792,
        "alt_km": 740.8505524385419,
        "timestamp": "2025-12-02T15:49:07.579312+00:00",
        "meta_object_name": "IRIDIUM 33 DEB",
        "meta_object_id": "1997-051AAB",
        "meta_epoch": "2025-11-29T08:54:08.657856",
        "meta_mean_motion": 14.50603208,
        "meta_eccentricity": 0.002717,
        "meta_inclination": 86.3442,
        "meta_ra_of_asc_node": 15.8845,
        "meta_arg_of_pericenter": 130.9322,
        "meta_mean_anomaly": 229.4241,
        "meta_ephemeris_type": 0,
        "meta_classification_type": "U",
        "meta_norad_cat_id": 38474,
        "meta_element_set_no": 999,
        "meta_rev_at_epoch": 65124,
        "meta_bstar": 0.00047302373,
        "meta_mean_motion_dot": 1.884e-05,
        "meta_mean_motion_ddot": 0,
        "tle_line1": "1 38474U 97051AAB 25333.37093354  .00001884  00000+0  47302-3 0  9997",
        "tle_line2": "2 38474  86.3442  15.8845 0027170 130.9322 229.4241 14.50603208651244"
      },
      "geometry": {
        "type": "Point",
        "coordinates": [
          -158.92797604087792,
          -60.9855694058118
        ]
      }
    },
    {
      "type": "Feature",
      "properties": {
        "norad_id": 39777,
        "name": "IRIDIUM 33 DEB",
        "group": "iridium-33-debris",
        "lat": 83.03759112464525,
        "lon": -144.72834392277778,
        "alt_km": 729.3115825087616,
        "timestamp": "2025-12-02T15:49:07.579322+00:00",
        "meta_object_name": "IRIDIUM 33 DEB",
        "meta_object_id": "1997-051AAJ",
        "meta_epoch": "2025-12-01T13:02:19.201056",
        "meta_mean_motion": 14.56024465,
        "meta_eccentricity": 0.00595889,
        "meta_inclination": 85.9622,
        "meta_ra_of_asc_node": 180.4732,
        "meta_arg_of_pericenter": 225.0821,
        "meta_mean_anomaly": 134.5543,
        "meta_ephemeris_type": 0,
        "meta_classification_type": "U",
        "meta_norad_cat_id": 39777,
        "meta_element_set_no": 999,
        "meta_rev_at_epoch": 60022,
        "meta_bstar": 0.0022774227,
        "meta_mean_motion_dot": 0.00010294,
        "meta_mean_motion_ddot": 0,
        "tle_line1": "1 39777U 97051AAJ 25335.54327779  .00010294  00000+0  22774-2 0  9996",
        "tle_line2": "2 39777  85.9622 180.4732 0059588 225.0821 134.5543 14.56024465600229"
      },
      "geometry": {
        "type": "Point",
        "coordinates": [
          -144.72834392277778,
          83.03759112464525
        ]
      }
    },
    {
      "type": "Feature",
      "properties": {
        "norad_id": 39778,
        "name": "IRIDIUM 33 DEB",
        "group": "iridium-33-debris",
        "lat": -6.3495054568362645,
        "lon": 47.197010565569826,
        "alt_km": 714.5686354406198,
        "timestamp": "2025-12-02T15:49:07.579332+00:00",
        "meta_object_name": "IRIDIUM 33 DEB",
        "meta_object_id": "1997-051AAK",
        "meta_epoch": "2025-12-02T04:17:14.096832",
        "meta_mean_motion": 14.54133244,
        "meta_eccentricity": 0.00088359,
        "meta_inclination": 86.3787,
        "meta_ra_of_asc_node": 47.8092,
        "meta_arg_of_pericenter": 71.8922,
        "meta_mean_anomaly": 288.3247,
        "meta_ephemeris_type": 0,
        "meta_classification_type": "U",
        "meta_norad_cat_id": 39778,
        "meta_element_set_no": 999,
        "meta_rev_at_epoch": 60539,
        "meta_bstar": 0.0010816599,
        "meta_mean_motion_dot": 4.593e-05,
        "meta_mean_motion_ddot": 0,
        "tle_line1": "1 39778U 97051AAK 25336.17863538  .00004593  00000+0  10817-2 0  9995",
        "tle_line2": "2 39778  86.3787  47.8092 0008835  71.8922 288.3247 14.54133244605396"
      },
      "geometry": {
        "type": "Point",
        "coordinates": [
          47.197010565569826,
          -6.3495054568362645
        ]
      }
    },
    {
      "type": "Feature",
      "properties": {
        "norad_id": 39781,
        "name": "IRIDIUM 33 DEB",
        "group": "iridium-33-debris",
        "lat": -72.66687383660796,
        "lon": 93.8688390771432,
        "alt_km": 750.1302683816739,
        "timestamp": "2025-12-02T15:49:07.579342+00:00",
        "meta_object_name": "IRIDIUM 33 DEB",
        "meta_object_id": "1997-051AAN",
        "meta_epoch": "2025-12-01T14:05:13.737984",
        "meta_mean_motion": 14.20093316,
        "meta_eccentricity": 0.01818611,
        "meta_inclination": 86.3695,
        "meta_ra_of_asc_node": 262.5729,
        "meta_arg_of_pericenter": 308.3699,
        "meta_mean_anomaly": 228.4219,
        "meta_ephemeris_type": 0,
        "meta_classification_type": "U",
        "meta_norad_cat_id": 39781,
        "meta_element_set_no": 999,
        "meta_rev_at_epoch": 7948,
        "meta_bstar": 0.0058998753,
        "meta_mean_motion_dot": 0.00014872,
        "meta_mean_motion_ddot": 0,
        "tle_line1": "1 39781U 97051AAN 25335.58696456  .00014872  00000+0  58999-2 0  9990",
        "tle_line2": "2 39781  86.3695 262.5729 0181861 308.3699 228.4219 14.20093316 79488"
      },
      "geometry": {
        "type": "Point",
        "coordinates": [
          93.8688390771432,
          -72.66687383660796
        ]
      }
    },
    {
      "type": "Feature",
      "properties": {
        "norad_id": 39783,
        "name": "IRIDIUM 33 DEB",
        "group": "iridium-33-debris",
        "lat": 0.919304842099499,
        "lon": 80.46473495514032,
        "alt_km": 484.2727069358243,
        "timestamp": "2025-12-02T15:49:07.579353+00:00",
        "meta_object_name": "IRIDIUM 33 DEB",
        "meta_object_id": "1997-051AAQ",
        "meta_epoch": "2025-11-16T15:05:40.850592",
        "meta_mean_motion": 15.19327111,
        "meta_eccentricity": 0.00057535,
        "meta_inclination": 86.1306,
        "meta_ra_of_asc_node": 268.8004,
        "meta_arg_of_pericenter": 179.9151,
        "meta_mean_anomaly": 1.8316,
        "meta_ephemeris_type": 0,
        "meta_classification_type": "U",
        "meta_norad_cat_id": 39783,
        "meta_element_set_no": 999,
        "meta_rev_at_epoch": 60401,
        "meta_bstar": 0.010398125,
        "meta_mean_motion_dot": 0.00226179,
        "meta_mean_motion_ddot": 0,
        "tle_line1": "1 39783U 97051AAQ 25320.62894503  .00226179  00000+0  10398-1 0  9999",
        "tle_line2": "2 39783  86.1306 268.8004 0005753 179.9151   1.8316 15.19327111604018"
      },
      "geometry": {
        "type": "Point",
        "coordinates": [
          80.46473495514032,
          0.919304842099499
        ]
      }
    },
    {
      "type": "Feature",
      "properties": {
        "norad_id": 40996,
        "name": "IRIDIUM 33 DEB",
        "group": "iridium-33-debris",
        "lat": -32.59040242790226,
        "lon": -171.54615776985545,
        "alt_km": 592.2628609261201,
        "timestamp": "2025-12-02T15:49:07.579363+00:00",
        "meta_object_name": "IRIDIUM 33 DEB",
        "meta_object_id": "1997-051ABJ",
        "meta_epoch": "2025-11-30T01:58:04.991808",
        "meta_mean_motion": 14.95095343,
        "meta_eccentricity": 0.00120283,
        "meta_inclination": 86.3535,
        "meta_ra_of_asc_node": 7.3184,
        "meta_arg_of_pericenter": 99.499,
        "meta_mean_anomaly": 290.4978,
        "meta_ephemeris_type": 0,
        "meta_classification_type": "U",
        "meta_norad_cat_id": 40996,
        "meta_element_set_no": 999,
        "meta_rev_at_epoch": 62299,
        "meta_bstar": 0.0030307541,
        "meta_mean_motion_dot": 0.00033396,
        "meta_mean_motion_ddot": 0,
        "tle_line1": "1 40996U 97051ABJ 25334.08200222  .00033396  00000+0  30308-2 0  9992",
        "tle_line2": "2 40996  86.3535   7.3184 0012028  99.4990 290.4978 14.95095343622996"
      },
      "geometry": {
        "type": "Point",
        "coordinates": [
          -171.54615776985545,
          -32.59040242790226
        ]
      }
    },
    {
      "type": "Feature",
      "properties": {
        "norad_id": 40998,
        "name": "IRIDIUM 33 DEB",
        "group": "iridium-33-debris",
        "lat": -15.645171133938659,
        "lon": 56.946239326058084,
        "alt_km": 750.7461039928394,
        "timestamp": "2025-12-02T15:49:07.579374+00:00",
        "meta_object_name": "IRIDIUM 33 DEB",
        "meta_object_id": "1997-051ABL",
        "meta_epoch": "2025-12-01T23:50:33.780192",
        "meta_mean_motion": 14.45034704,
        "meta_eccentricity": 0.00095443,
        "meta_inclination": 86.3835,
        "meta_ra_of_asc_node": 58.2453,
        "meta_arg_of_pericenter": 112.5811,
        "meta_mean_anomaly": 11.2628,
        "meta_ephemeris_type": 0,
        "meta_classification_type": "U",
        "meta_norad_cat_id": 40998,
        "meta_element_set_no": 999,
        "meta_rev_at_epoch": 6526,
        "meta_bstar": 0.00063238102,
        "meta_mean_motion_dot": 2.227e-05,
        "meta_mean_motion_ddot": 0,
        "tle_line1": "1 40998U 97051ABL 25335.99344653  .00002227  00000+0  63238-3 0  9990",
        "tle_line2": "2 40998  86.3835  58.2453 0009544 112.5811  11.2628 14.45034704 65264"
      },
      "geometry": {
        "type": "Point",
        "coordinates": [
          56.946239326058084,
          -15.645171133938659
        ]
      }
    }
  ]
}